{
  "type": "FeatureCollection",
  "features": [
    {
      "type": "Feature",
      "properties": {
        "norad_id": 30050,
        "name": "FENGYUN 1C DEB",
        "group": "fengyun-1c-debris",
        "lat": 34.503030758538344,
        "lon": 133.18984082289072,
        "alt_km": 1006.7795287483141,
        "timestamp": "2025-12-14T20:40:32.045037+00:00",
        "meta_object_name": "FENGYUN 1C DEB",
        "meta_object_id": "1999-025PB",
        "meta_epoch": "2025-12-14T08:34:57.581760",
        "meta_mean_motion": 13.85055642,
        "meta_eccentricity": 0.01715404,
        "meta_inclination": 96.8177,
        "meta_ra_of_asc_node": 308.1062,
        "meta_arg_of_pericenter": 25.598,
        "meta_mean_anomaly": 126.8658,
        "meta_ephemeris_type": 0,
        "meta_classification_type": "U",
        "meta_norad_cat_id": 30050,
        "meta_element_set_no": 999,
        "meta_rev_at_epoch": 95224,
        "meta_bstar": 0.0016194613,
        "meta_mean_motion_dot": 2.03e-05,
        "meta_mean_motion_ddot": 0,
        "tle_line1": "1 30050U 99025PB  25348.35761090  .00002030  00000+0  16195-2 0  9994",
        "tle_line2": "2 30050  96.8177 308.1062 0171540  25.5980 126.8658 13.85055642952242"
      },
      "geometry": {
        "type": "Point",
        "coordinates": [
          133.18984082289072,
          34.503030758538344
        ]
      }
    },
    {
      "type": "Feature",
      "properties": {
        "norad_id": 30052,
        "name": "FENGYUN 1C DEB",
        "group": "fengyun-1c-debris",
        "lat": -28.253177460303167,
        "lon": 19.449567544153837,
        "alt_km": 1043.0388018834974,
        "timestamp": "2025-12-14T20:40:32.045047+00:00",
        "meta_object_name": "FENGYUN 1C DEB",
        "meta_object_id": "1999-025PD",
        "meta_epoch": "2025-12-14T08:39:50.786208",
        "meta_mean_motion": 13.72962355,
        "meta_eccentricity": 0.02890518,
        "meta_inclination": 99.2991,
        "meta_ra_of_asc_node": 13.9117,
        "meta_arg_of_pericenter": 228.0135,
        "meta_mean_anomaly": 147.8243,
        "meta_ephemeris_type": 0,
        "meta_classification_type": "U",
        "meta_norad_cat_id": 30052,
        "meta_element_set_no": 999,
        "meta_rev_at_epoch": 94577,
        "meta_bstar": 0.00058399285,
        "meta_mean_motion_dot": 6.83e-06,
        "meta_mean_motion_ddot": 0,
        "tle_line1": "1 30052U 99025PD  25348.36100447  .00000683  00000+0  58399-3 0  9995",
        "tle_line2": "2 30052  99.2991  13.9117 0289051 228.0135 147.8243 13.72962355945773"
      },
      "geometry": {
        "type": "Point",
        "coordinates": [
          19.449567544153837,
          -28.253177460303167
        ]
      }
    },
    {
      "type": "Feature",
      "properties": {
        "norad_id": 30053,
        "name": "FENGYUN 1C DEB",
        "group": "fengyun-1c-debris",
        "lat": -33.251189340740304,
        "lon": 167.4999643035909,
        "alt_km": 679.7059132664554,
        "timestamp": "2025-12-14T20:40:32.045057+00:00",
        "meta_object_name": "FENGYUN 1C DEB",
        "meta_object_id": "1999-025PE",
        "meta_epoch": "2025-12-14T06:12:49.595904",
        "meta_mean_motion": 13.94148519,
        "meta_eccentricity": 0.03314907,
        "meta_inclination": 98.5753,
        "meta_ra_of_asc_node": 161.2617,
        "meta_arg_of_pericenter": 334.1836,
        "meta_mean_anomaly": 210.0222,
        "meta_ephemeris_type": 0,
        "meta_classification_type": "U",
        "meta_norad_cat_id": 30053,
        "meta_element_set_no": 999,
        "meta_rev_at_epoch": 95007,
        "meta_bstar": 0.0014935861,
        "meta_mean_motion_dot": 3.083e-05,
        "meta_mean_motion_ddot": 0,
        "tle_line1": "1 30053U 99025PE  25348.25890736  .00003083  00000+0  14936-2 0  9996",
        "tle_line2": "2 30053  98.5753 161.2617 0331490 334.1836 210.0222 13.94148519950077"
      },
      "geometry": {
        "type": "Point",
        "coordinates": [
          167.4999643035909,
          -33.251189340740304
        ]
      }
    },
    {
      "type": "Feature",
      "properties": {
        "norad_id": 30054,
        "name": "FENGYUN 1C DEB",
        "group": "fengyun-1c-debris",
        "lat": -56.10935331112693,
        "lon": -173.18904197902938,
        "alt_km": 1112.4237071408606,
        "timestamp": "2025-12-14T20:40:32.045067+00:00",
        "meta_object_name": "FENGYUN 1C DEB",
        "meta_object_id": "1999-025PF",
        "meta_epoch": "2025-12-14T02:15:52.248672",
        "meta_mean_motion": 13.69866789,
        "meta_eccentricity": 0.02757799,
        "meta_inclination": 99.3717,
        "meta_ra_of_asc_node": 20.295,
        "meta_arg_of_pericenter": 1.7411,
        "meta_mean_anomaly": 57.0575,
        "meta_ephemeris_type": 0,
        "meta_classification_type": "U",
        "meta_norad_cat_id": 30054,
        "meta_element_set_no": 999,
        "meta_rev_at_epoch": 94367,
        "meta_bstar": 0.00066814421,
        "meta_mean_motion_dot": 7.21e-06,
        "meta_mean_motion_ddot": 0,
        "tle_line1": "1 30054U 99025PF  25348.09435473  .00000721  00000+0  66814-3 0  9991",
        "tle_line2": "2 30054  99.3717  20.2950 0275779   1.7411  57.0575 13.69866789943670"
      },
      "geometry": {
        "type": "Point",
        "coordinates": [
          -173.18904197902938,
          -56.10935331112693
        ]
      }
    },
    {
      "type": "Feature",
      "properties": {
        "norad_id": 30056,
        "name": "FENGYUN 1C DEB",
        "group": "fengyun-1c-debris",
        "lat": -34.19521589605219,
        "lon": -11.470057409365804,
        "alt_km": 773.5347949587622,
        "timestamp": "2025-12-14T20:40:32.045077+00:00",
        "meta_object_name": "FENGYUN 1C DEB",
        "meta_object_id": "1999-025PH",
        "meta_epoch": "2025-12-14T00:24:18.560736",
        "meta_mean_motion": 13.73997162,
        "meta_eccentricity": 0.0299575,
        "meta_inclination": 98.3227,
        "meta_ra_of_asc_node": 173.501,
        "meta_arg_of_pericenter": 207.387,
        "meta_mean_anomaly": 151.1216,
        "meta_ephemeris_type": 0,
        "meta_classification_type": "U",
        "meta_norad_cat_id": 30056,
        "meta_element_set_no": 999,
        "meta_rev_at_epoch": 93993,
        "meta_bstar": 0.0032018357,
        "meta_mean_motion_dot": 4.122e-05,
        "meta_mean_motion_ddot": 0,
        "tle_line1": "1 30056U 99025PH  25348.01688149  .00004122  00000+0  32018-2 0  9992",
        "tle_line2": "2 30056  98.3227 173.5010 0299575 207.3870 151.1216 13.73997162939936"
      },
      "geometry": {
        "type": "Point",
        "coordinates": [
          -11.470057409365804,
          -34.19521589605219
        ]
      }
    },
    {
      "type": "Feature",
      "properties": {
        "norad_id": 30057,
        "name": "FENGYUN 1C DEB",
        "group": "fengyun-1c-debris",
        "lat": -32.834563655958995,
        "lon": -128.39651607893987,
        "alt_km": 979.956532363959,
        "timestamp": "2025-12-14T20:40:32.045087+00:00",
        "meta_object_name": "FENGYUN 1C DEB",
        "meta_object_id": "1999-025PJ",
        "meta_epoch": "2025-12-14T04:00:24.704640",
        "meta_mean_motion": 13.57127489,
        "meta_eccentricity": 0.02925192,
        "meta_inclination": 98.8835,
        "meta_ra_of_asc_node": 56.7676,
        "meta_arg_of_pericenter": 142.8012,
        "meta_mean_anomaly": 275.7705,
        "meta_ephemeris_type": 0,
        "meta_classification_type": "U",
        "meta_norad_cat_id": 30057,
        "meta_element_set_no": 999,
        "meta_rev_at_epoch": 93255,
        "meta_bstar": 0.0016353783,
        "meta_mean_motion_dot": 1.501e-05,
        "meta_mean_motion_ddot": 0,
        "tle_line1": "1 30057U 99025PJ  25348.16695260  .00001501  00000+0  16354-2 0  9994",
        "tle_line2": "2 30057  98.8835  56.7676 0292519 142.8012 275.7705 13.57127489932555"
      },
      "geometry": {
        "type": "Point",
        "coordinates": [
          -128.39651607893987,
          -32.834563655958995
        ]
      }
    },
    {
      "type": "Feature",
      "properties": {
        "norad_id": 30058,
        "name": "FENGYUN 1C DEB",
        "group": "fengyun-1c-debris",
        "lat": -31.17567231196319,
        "lon": 167.12952799964873,
        "alt_km": 977.0840055350272,
        "timestamp": "2025-12-14T20:40:32.045097+00:00",
        "meta_object_name": "FENGYUN 1C DEB",
        "meta_object_id": "1999-025PK",
        "meta_epoch": "2025-12-13T22:35:12.458688",
        "meta_mean_motion": 13.48238615,
        "meta_eccentricity": 0.03157518,
        "meta_inclination": 99.6498,
        "meta_ra_of_asc_node": 352.1477,
        "meta_arg_of_pericenter": 149.4036,
        "meta_mean_anomaly": 274.0805,
        "meta_ephemeris_type": 0,
        "meta_classification_type": "U",
        "meta_norad_cat_id": 30058,
        "meta_element_set_no": 999,
        "meta_rev_at_epoch": 92864,
        "meta_bstar": 0.00074751316,
        "meta_mean_motion_dot": 5.87e-06,
        "meta_mean_motion_ddot": 0,
        "tle_line1": "1 30058U 99025PK  25347.94111642  .00000587  00000+0  74751-3 0  9996",
        "tle_line2": "2 30058  99.6498 352.1477 0315751 149.4036 274.0805 13.48238615928647"
      },
      "geometry": {
        "type": "Point",
        "coordinates": [
          167.12952799964873,
          -31.17567231196319
        ]
      }
    }
  ]
}